{
  "type": "FeatureCollection",
  "features": [
    {
      "type": "Feature",
      "properties": {
        "norad_id": 35605,
        "name": "COSMOS 2251 DEB",
        "group": "cosmos-2251-debris",
        "lat": -12.68831524141571,
        "lon": -40.461729660967265,
        "alt_km": 462.1205033185952,
        "timestamp": "2025-12-18T21:31:51.401391+00:00",
        "meta_object_name": "COSMOS 2251 DEB",
        "meta_object_id": "1993-036AMY",
        "meta_epoch": "2025-12-16T05:30:02.725344",
        "meta_mean_motion": 15.35586787,
        "meta_eccentricity": 0.00242235,
        "meta_inclination": 73.8701,
        "meta_ra_of_asc_node": 329.0606,
        "meta_arg_of_pericenter": 257.5437,
        "meta_mean_anomaly": 102.3057,
        "meta_ephemeris_type": 0,
        "meta_classification_type": "U",
        "meta_norad_cat_id": 35605,
        "meta_element_set_no": 999,
        "meta_rev_at_epoch": 66025,
        "meta_bstar": 0.0050760725,
        "meta_mean_motion_dot": 0.00181517,
        "meta_mean_motion_ddot": 0,
        "tle_line1": "1 35605U 93036AMY 25350.22919821  .00181517  00000+0  50761-2 0  9992",
        "tle_line2": "2 35605  73.8701 329.0606 0024223 257.5437 102.3057 15.35586787660251"
      },
      "geometry": {
        "type": "Point",
        "coordinates": [
          -40.461729660967265,
          -12.68831524141571
        ]
      }
    },
    {
      "type": "Feature",
      "properties": {
        "norad_id": 35606,
        "name": "COSMOS 2251 DEB",
        "group": "cosmos-2251-debris",
        "lat": 38.83770197866888,
        "lon": 14.509083197261758,
        "alt_km": 1430.716797205153,
        "timestamp": "2025-12-18T21:31:51.401401+00:00",
        "meta_object_name": "COSMOS 2251 DEB",
        "meta_object_id": "1993-036AMZ",
        "meta_epoch": "2025-12-17T18:27:28.365120",
        "meta_mean_motion": 13.41216697,
        "meta_eccentricity": 0.04572108,
        "meta_inclination": 73.8105,
        "meta_ra_of_asc_node": 2.7804,
        "meta_arg_of_pericenter": 207.7717,
        "meta_mean_anomaly": 149.8287,
        "meta_ephemeris_type": 0,
        "meta_classification_type": "U",
        "meta_norad_cat_id": 35606,
        "meta_element_set_no": 999,
        "meta_rev_at_epoch": 61107,
        "meta_bstar": 0.0003718916,
        "meta_mean_motion_dot": 3.59e-06,
        "meta_mean_motion_ddot": 0,
        "tle_line1": "1 35606U 93036AMZ 25351.76907830  .00000359  00000+0  37189-3 0  9994",
        "tle_line2": "2 35606  73.8105   2.7804 0457210 207.7717 149.8287 13.41216697611071"
      },
      "geometry": {
        "type": "Point",
        "coordinates": [
          14.509083197261758,
          38.83770197866888
        ]
      }
    },
    {
      "type": "Feature",
      "properties": {
        "norad_id": 35611,
        "name": "COSMOS 2251 DEB",
        "group": "cosmos-2251-debris",
        "lat": -22.72034619058742,
        "lon": -5.81159153978552,
        "alt_km": 644.4010728296253,
        "timestamp": "2025-12-18T21:31:51.401411+00:00",
        "meta_object_name": "COSMOS 2251 DEB",
        "meta_object_id": "1993-036ANE",
        "meta_epoch": "2025-12-17T21:47:16.724544",
        "meta_mean_motion": 14.72986484,
        "meta_eccentricity": 0.00214069,
        "meta_inclination": 74.0185,
        "meta_ra_of_asc_node": 169.2246,
        "meta_arg_of_pericenter": 241.9604,
        "meta_mean_anomaly": 117.9404,
        "meta_ephemeris_type": 0,
        "meta_classification_type": "U",
        "meta_norad_cat_id": 35611,
        "meta_element_set_no": 999,
        "meta_rev_at_epoch": 87366,
        "meta_bstar": 0.0018150701,
        "meta_mean_motion_dot": 0.00011685,
        "meta_mean_motion_ddot": 0,
        "tle_line1": "1 35611U 93036ANE 25351.90783246  .00011685  00000+0  18151-2 0  9990",
        "tle_line2": "2 35611  74.0185 169.2246 0021406 241.9604 117.9404 14.72986484873661"
      },
      "geometry": {
        "type": "Point",
        "coordinates": [
          -5.81159153978552,
          -22.72034619058742
        ]
      }
    },
    {
      "type": "Feature",
      "properties": {
        "norad_id": 35614,
        "name": "COSMOS 2251 DEB",
        "group": "cosmos-2251-debris",
        "lat": -12.92816787954197,
        "lon": 139.30918790075162,
        "alt_km": 626.3659877417922,
        "timestamp": "2025-12-18T21:31:51.401422+00:00",
        "meta_object_name": "COSMOS 2251 DEB",
        "meta_object_id": "1993-036ANH",
        "meta_epoch": "2025-12-18T04:17:20.029920",
        "meta_mean_motion": 14.67060483,
        "meta_eccentricity": 0.00753518,
        "meta_inclination": 73.9586,
        "meta_ra_of_asc_node": 316.9148,
        "meta_arg_of_pericenter": 169.9946,
        "meta_mean_anomaly": 190.2746,
        "meta_ephemeris_type": 0,
        "meta_classification_type": "U",
        "meta_norad_cat_id": 35614,
        "meta_element_set_no": 999,
        "meta_rev_at_epoch": 87809,
        "meta_bstar": 0.00063187331,
        "meta_mean_motion_dot": 3.668e-05,
        "meta_mean_motion_ddot": 0,
        "tle_line1": "1 35614U 93036ANH 25352.17870405  .00003668  00000+0  63187-3 0  9999",
        "tle_line2": "2 35614  73.9586 316.9148 0075351 169.9946 190.2746 14.67060483878096"
      },
      "geometry": {
        "type": "Point",
        "coordinates": [
          139.30918790075162,
          -12.92816787954197
        ]
      }
    },
    {
      "type": "Feature",
      "properties": {
        "norad_id": 35645,
        "name": "COSMOS 2251 DEB",
        "group": "cosmos-2251-debris",
        "lat": 21.275785939805214,
        "lon": -110.23100036907523,
        "alt_km": 726.5277960279445,
        "timestamp": "2025-12-18T21:31:51.401432+00:00",
        "meta_object_name": "COSMOS 2251 DEB",
        "meta_object_id": "1993-036ANL",
        "meta_epoch": "2025-12-18T05:51:00.261792",
        "meta_mean_motion": 14.45662018,
        "meta_eccentricity": 0.00697503,
        "meta_inclination": 73.9648,
        "meta_ra_of_asc_node": 77.4223,
        "meta_arg_of_pericenter": 234.5372,
        "meta_mean_anomaly": 124.9263,
        "meta_ephemeris_type": 0,
        "meta_classification_type": "U",
        "meta_norad_cat_id": 35645,
        "meta_element_set_no": 999,
        "meta_rev_at_epoch": 86851,
        "meta_bstar": 0.0016694587,
        "meta_mean_motion_dot": 6.062e-05,
        "meta_mean_motion_ddot": 0,
        "tle_line1": "1 35645U 93036ANL 25352.24375303  .00006062  00000+0  16695-2 0  9990",
        "tle_line2": "2 35645  73.9648  77.4223 0069750 234.5372 124.9263 14.45662018868512"
      },
      "geometry": {
        "type": "Point",
        "coordinates": [
          -110.23100036907523,
          21.275785939805214
        ]
      }
    },
    {
      "type": "Feature",
      "properties": {
        "norad_id": 35646,
        "name": "COSMOS 2251 DEB",
        "group": "cosmos-2251-debris",
        "lat": -68.30720917108923,
        "lon": -0.4044794778030645,
        "alt_km": 1319.9945560010428,
        "timestamp": "2025-12-18T21:31:51.401442+00:00",
        "meta_object_name": "COSMOS 2251 DEB",
        "meta_object_id": "1993-036ANM",
        "meta_epoch": "2025-12-17T10:13:49.217376",
        "meta_mean_motion": 13.40827908,
        "meta_eccentricity": 0.04565193,
        "meta_inclination": 73.8719,
        "meta_ra_of_asc_node": 48.5924,
        "meta_arg_of_pericenter": 157.9927,
        "meta_mean_anomaly": 225.3714,
        "meta_ephemeris_type": 0,
        "meta_classification_type": "U",
        "meta_norad_cat_id": 35646,
        "meta_element_set_no": 999,
        "meta_rev_at_epoch": 81921,
        "meta_bstar": 0.00049499491,
        "meta_mean_motion_dot": 4.84e-06,
        "meta_mean_motion_ddot": 0,
        "tle_line1": "1 35646U 93036ANM 25351.42626409  .00000484  00000+0  49499-3 0  9997",
        "tle_line2": "2 35646  73.8719  48.5924 0456519 157.9927 225.3714 13.40827908819210"
      },
      "geometry": {
        "type": "Point",
        "coordinates": [
          -0.4044794778030645,
          -68.30720917108923
        ]
      }
    },
    {
      "type": "Feature",
      "properties": {
        "norad_id": 35647,
        "name": "COSMOS 2251 DEB",
        "group": "cosmos-2251-debris",
        "lat": -5.785205744685967,
        "lon": 104.77553017658681,
        "alt_km": 781.2603643572065,
        "timestamp": "2025-12-18T21:31:51.401453+00:00",
        "meta_object_name": "COSMOS 2251 DEB",
        "meta_object_id": "1993-036ANN",
        "meta_epoch": "2025-12-16T12:07:42.204576",
        "meta_mean_motion": 14.43653976,
        "meta_eccentricity": 0.00457493,
        "meta_inclination": 74.0235,
        "meta_ra_of_asc_node": 287.5596,
        "meta_arg_of_pericenter": 25.7805,
        "meta_mean_anomaly": 334.5617,
        "meta_ephemeris_type": 0,
        "meta_classification_type": "U",
        "meta_norad_cat_id": 35647,
        "meta_element_set_no": 999,
        "meta_rev_at_epoch": 67718,
        "meta_bstar": 0.00059115508,
        "meta_mean_motion_dot": 2.005e-05,
        "meta_mean_motion_ddot": 0,
        "tle_line1": "1 35647U 93036ANN 25350.50534959  .00002005  00000+0  59116-3 0  9992",
        "tle_line2": "2 35647  74.0235 287.5596 0045749  25.7805 334.5617 14.43653976677182"
      },
      "geometry": {
        "type": "Point",
        "coordinates": [
          104.77553017658681,
          -5.785205744685967
        ]
      }
    }
  ]
}